[{"OBJECT_NAME":"TELKOM 4 (MERAH PUTIH)","OBJECT_ID":"2018-064A","EPOCH":"2026-03-02T20:27:38.001024","MEAN_MOTION":1.00271229,"ECCENTRICITY":0.0001598,"INCLINATION":0.0099,"RA_OF_ASC_NODE":159.7699,"ARG_OF_PERICENTER":214.3271,"MEAN_ANOMALY":201.4215,"EPHEMERIS_TYPE":0,"CLASSIFICATION_TYPE":"U","NORAD_CAT_ID":43587,"ELEMENT_SET_NO":999,"REV_AT_EPOCH":2781,"BSTAR":0,"MEAN_MOTION_DOT":-3.6e-6,"MEAN_MOTION_DDOT":0},{"OBJECT_NAME":"TELSTAR 18V","OBJECT_ID":"2018-069A","EPOCH":"2026-03-02T12:01:45.136704","MEAN_MOTION":1.00271776,"ECCENTRICITY":0.00023136,"INCLINATION":0.0216,"RA_OF_ASC_NODE":239.0373,"ARG_OF_PERICENTER":99.9795,"MEAN_ANOMALY":139.6885,"EPHEMERIS_TYPE":0,"CLASSIFICATION_TYPE":"U","NORAD_CAT_ID":43611,"ELEMENT_SET_NO":999,"REV_AT_EPOCH":2756,"BSTAR":0,"MEAN_MOTION_DOT":-3.11e-6,"MEAN_MOTION_DDOT":0},{"OBJECT_NAME":"AZERSPACE 2 (IS-38)","OBJECT_ID":"2018-074A","EPOCH":"2026-03-02T17:45:13.072032","MEAN_MOTION":1.00269584,"ECCENTRICITY":0.0001485,"INCLINATION":0.025,"RA_OF_ASC_NODE":149.9423,"ARG_OF_PERICENTER":198.0695,"MEAN_ANOMALY":123.9322,"EPHEMERIS_TYPE":0,"CLASSIFICATION_TYPE":"U","NORAD_CAT_ID":43632,"ELEMENT_SET_NO":999,"REV_AT_EPOCH":2738,"BSTAR":0,"MEAN_MOTION_DOT":0,"MEAN_MOTION_DDOT":0},{"OBJECT_NAME":"HORIZONS-3E","OBJECT_ID":"2018-074B","EPOCH":"2026-03-02T09:13:51.659616","MEAN_MOTION":1.00271501,"ECCENTRICITY":6.802e-5,"INCLINATION":0.0174,"RA_OF_ASC_NODE":320.81,"ARG_OF_PERICENTER":1.7401,"MEAN_ANOMALY":145.0434,"EPHEMERIS_TYPE":0,"CLASSIFICATION_TYPE":"U","NORAD_CAT_ID":43633,"ELEMENT_SET_NO":999,"REV_AT_EPOCH":2727,"BSTAR":0,"MEAN_MOTION_DOT":-4.8e-7,"MEAN_MOTION_DDOT":0},{"OBJECT_NAME":"BEIDOU-3 G1","OBJECT_ID":"2018-085A","EPOCH":"2026-03-02T18:12:17.976960","MEAN_MOTION":1.00269049,"ECCENTRICITY":0.000129,"INCLINATION":2.8063,"RA_OF_ASC_NODE":100.4335,"ARG_OF_PERICENTER":30.1716,"MEAN_ANOMALY":83.0505,"EPHEMERIS_TYPE":0,"CLASSIFICATION_TYPE":"U","NORAD_CAT_ID":43683,"ELEMENT_SET_NO":999,"REV_AT_EPOCH":2699,"BSTAR":0,"MEAN_MOTION_DOT":-2.94e-6,"MEAN_MOTION_DDOT":0},{"OBJECT_NAME":"GSAT-29","OBJECT_ID":"2018-089A","EPOCH":"2026-03-02T19:44:38.776128","MEAN_MOTION":1.00271064,"ECCENTRICITY":0.0001862,"INCLINATION":0.0615,"RA_OF_ASC_NODE":273.6993,"ARG_OF_PERICENTER":49.3646,"MEAN_ANOMALY":188.7024,"EPHEMERIS_TYPE":0,"CLASSIFICATION_TYPE":"U","NORAD_CAT_ID":43698,"ELEMENT_SET_NO":999,"REV_AT_EPOCH":2672,"BSTAR":0,"MEAN_MOTION_DOT":6.9e-7,"MEAN_MOTION_DDOT":0},{"OBJECT_NAME":"ES'HAIL 2","OBJECT_ID":"2018-090A","EPOCH":"2026-03-02T17:17:18.820608","MEAN_MOTION":1.00267779,"ECCENTRICITY":0.0002653,"INCLINATION":0.0255,"RA_OF_ASC_NODE":242.7362,"ARG_OF_PERICENTER":132.4476,"MEAN_ANOMALY":70.4158,"EPHEMERIS_TYPE":0,"CLASSIFICATION_TYPE":"U","NORAD_CAT_ID":43700,"ELEMENT_SET_NO":999,"REV_AT_EPOCH":2660,"BSTAR":0,"MEAN_MOTION_DOT":1.27e-6,"MEAN_MOTION_DDOT":0},{"OBJECT_NAME":"GEO-KOMPSAT-2A","OBJECT_ID":"2018-100A","EPOCH":"2026-03-01T23:19:22.738080","MEAN_MOTION":1.00270368,"ECCENTRICITY":0.0001336,"INCLINATION":0.018,"RA_OF_ASC_NODE":67.6811,"ARG_OF_PERICENTER":333.425,"MEAN_ANOMALY":236.7399,"EPHEMERIS_TYPE":0,"CLASSIFICATION_TYPE":"U","NORAD_CAT_ID":43823,"ELEMENT_SET_NO":999,"REV_AT_EPOCH":2655,"BSTAR":0,"MEAN_MOTION_DOT":-3.62e-6,"MEAN_MOTION_DDOT":0},{"OBJECT_NAME":"GSAT-11","OBJECT_ID":"2018-100B","EPOCH":"2026-03-02T20:10:38.498304","MEAN_MOTION":1.00271601,"ECCENTRICITY":0.0004838,"INCLINATION":0.0896,"RA_OF_ASC_NODE":271.1988,"ARG_OF_PERICENTER":143.4568,"MEAN_ANOMALY":122.5963,"EPHEMERIS_TYPE":0,"CLASSIFICATION_TYPE":"U","NORAD_CAT_ID":43824,"ELEMENT_SET_NO":999,"REV_AT_EPOCH":2641,"BSTAR":0,"MEAN_MOTION_DOT":-9.3e-7,"MEAN_MOTION_DDOT":0},{"OBJECT_NAME":"GSAT-7A","OBJECT_ID":"2018-105A","EPOCH":"2026-03-02T20:40:50.129184","MEAN_MOTION":1.00270588,"ECCENTRICITY":0.0002073,"INCLINATION":0.1027,"RA_OF_ASC_NODE":277.3552,"ARG_OF_PERICENTER":49.96,"MEAN_ANOMALY":206.2554,"EPHEMERIS_TYPE":0,"CLASSIFICATION_TYPE":"U","NORAD_CAT_ID":43864,"ELEMENT_SET_NO":999,"REV_AT_EPOCH":2638,"BSTAR":0,"MEAN_MOTION_DOT":1.1e-7,"MEAN_MOTION_DDOT":0},{"OBJECT_NAME":"COSMOS 2533","OBJECT_ID":"2018-107A","EPOCH":"2026-03-02T04:32:38.626944","MEAN_MOTION":1.00268392,"ECCENTRICITY":6.3e-5,"INCLINATION":0.0195,"RA_OF_ASC_NODE":114.5866,"ARG_OF_PERICENTER":341.1778,"MEAN_ANOMALY":202.3414,"EPHEMERIS_TYPE":0,"CLASSIFICATION_TYPE":"U","NORAD_CAT_ID":43867,"ELEMENT_SET_NO":999,"REV_AT_EPOCH":2636,"BSTAR":0,"MEAN_MOTION_DOT":-5.5e-7,"MEAN_MOTION_DDOT":0},{"OBJECT_NAME":"TJS-3","OBJECT_ID":"2018-110A","EPOCH":"2026-03-02T02:32:41.702208","MEAN_MOTION":1.00349757,"ECCENTRICITY":0.0016635,"INCLINATION":2.2688,"RA_OF_ASC_NODE":81.817,"ARG_OF_PERICENTER":344.8419,"MEAN_ANOMALY":217.635,"EPHEMERIS_TYPE":0,"CLASSIFICATION_TYPE":"U","NORAD_CAT_ID":43874,"ELEMENT_SET_NO":999,"REV_AT_EPOCH":2634,"BSTAR":0,"MEAN_MOTION_DOT":-2.29e-6,"MEAN_MOTION_DDOT":0},{"OBJECT_NAME":"ZHONGXING-2D","OBJECT_ID":"2019-001A","EPOCH":"2026-03-02T21:22:55.036992","MEAN_MOTION":1.00272478,"ECCENTRICITY":0.0001277,"INCLINATION":0.0557,"RA_OF_ASC_NODE":290.9257,"ARG_OF_PERICENTER":355.9743,"MEAN_ANOMALY":324.4995,"EPHEMERIS_TYPE":0,"CLASSIFICATION_TYPE":"U","NORAD_CAT_ID":43920,"ELEMENT_SET_NO":999,"REV_AT_EPOCH":5301,"BSTAR":0,"MEAN_MOTION_DOT":-3.53e-6,"MEAN_MOTION_DDOT":0},{"OBJECT_NAME":"HELLAS-SAT 4 & SGS-1","OBJECT_ID":"2019-007A","EPOCH":"2026-03-02T17:43:28.241184","MEAN_MOTION":1.00268904,"ECCENTRICITY":0.0003037,"INCLINATION":0.0652,"RA_OF_ASC_NODE":125.8686,"ARG_OF_PERICENTER":29.0121,"MEAN_ANOMALY":310.5038,"EPHEMERIS_TYPE":0,"CLASSIFICATION_TYPE":"U","NORAD_CAT_ID":44034,"ELEMENT_SET_NO":999,"REV_AT_EPOCH":2629,"BSTAR":0,"MEAN_MOTION_DOT":1.36e-6,"MEAN_MOTION_DDOT":0},{"OBJECT_NAME":"GSAT-31","OBJECT_ID":"2019-007B","EPOCH":"2026-03-02T19:44:38.776128","MEAN_MOTION":1.00269626,"ECCENTRICITY":0.0004772,"INCLINATION":0.0423,"RA_OF_ASC_NODE":274.778,"ARG_OF_PERICENTER":29.0818,"MEAN_ANOMALY":200.7582,"EPHEMERIS_TYPE":0,"CLASSIFICATION_TYPE":"U","NORAD_CAT_ID":44035,"ELEMENT_SET_NO":999,"REV_AT_EPOCH":2590,"BSTAR":0,"MEAN_MOTION_DOT":1.09e-6,"MEAN_MOTION_DDOT":0},{"OBJECT_NAME":"NUSANTARA SATU","OBJECT_ID":"2019-009A","EPOCH":"2026-03-02T12:06:13.939200","MEAN_MOTION":1.00270564,"ECCENTRICITY":0.00013196,"INCLINATION":0.0271,"RA_OF_ASC_NODE":131.4512,"ARG_OF_PERICENTER":318.0739,"MEAN_ANOMALY":38.2962,"EPHEMERIS_TYPE":0,"CLASSIFICATION_TYPE":"U","NORAD_CAT_ID":44048,"ELEMENT_SET_NO":999,"REV_AT_EPOCH":2570,"BSTAR":0,"MEAN_MOTION_DOT":-2.52e-6,"MEAN_MOTION_DDOT":0},{"OBJECT_NAME":"ZHONGXING-6C","OBJECT_ID":"2019-012A","EPOCH":"2026-03-02T18:09:33.239808","MEAN_MOTION":1.00271094,"ECCENTRICITY":0.0008466,"INCLINATION":0.039,"RA_OF_ASC_NODE":54.0893,"ARG_OF_PERICENTER":334.9348,"MEAN_ANOMALY":174.3033,"EPHEMERIS_TYPE":0,"CLASSIFICATION_TYPE":"U","NORAD_CAT_ID":44067,"ELEMENT_SET_NO":999,"REV_AT_EPOCH":2567,"BSTAR":0,"MEAN_MOTION_DOT":-3.52e-6,"MEAN_MOTION_DDOT":0}]
